ORBCOMM FM103 [+]       
1 40091U 14040F   24001.42237416  .00000807  00000+0  21849-3 0  9990
2 40091  47.0075   9.7768 0002428 333.9602  26.1160 14.56176502486403
ORBCOMM FM114 [+]       
1 41179U 15081A   24001.73127556  .00001113  00000+0  28685-3 0  9997
2 41179  47.0032 277.6492 0001529  42.2598 317.8404 14.56214107426868
ORBCOMM FM119 [-]       
1 41180U 15081B   24001.63105679  .00000606  00000+0  17338-3 0  9999
2 41180  46.9991 187.3121 0001316 152.8825 207.2129 14.56165300428052
ORBCOMM FM105 [-]       
1 41181U 15081C   24001.76357868  .00000375  00000+0  15373-3 0  9993
2 41181  47.0002 141.8336 0001282 109.9124 250.1894 14.44164534423874
ORBCOMM FM110 [+]       
1 41182U 15081D   24001.77676776  .00001167  00000+0  29883-3 0  9998
2 41182  47.0022 276.8519 0002009 267.2576  92.8079 14.56222942426876
ORBCOMM FM118 [+]       
1 41183U 15081E   24001.13659848  .00001145  00000+0  29409-3 0  9990
2 41183  47.0038 280.1470 0002187 259.8772 100.1866 14.56215835426702
ORBCOMM FM112 [+]       
1 41184U 15081F   23365.64829300  .00000780  00000+0  21235-3 0  9994
2 41184  46.9973 191.1822 0001164 123.8575 236.2420 14.56181932427850
ORBCOMM FM113 [+]       
1 41185U 15081G   24001.65442882  .00000767  00000+0  20958-3 0  9996
2 41185  46.9988 186.6874 0001164 168.0636 192.0276 14.56166262428052
